{"type": "FeatureCollection", "features": [ {"type": "Feature", "properties": {"norad_id": 31416, "name": "FENGYUN 1C DEB", "group": "fengyun-1c-debris", "lat": 61.588999123310295, "lon": 13.928247453491434, "alt_km": 836.2692143152854, "timestamp": "2025-12-07T03:52:32.779557+00:00", "meta": {"OBJECT_NAME": "FENGYUN 1C DEB", "OBJECT_ID": "1999-025BTC", "EPOCH": "2025-12-06T09:14:42.180288", "MEAN_MOTION": 14.40651167, "ECCENTRICITY": 0.01328091, "INCLINATION": 99.0524, "RA_OF_ASC_NODE": 30.2476, "ARG_OF_PERICENTER": 269.8677, "MEAN_ANOMALY": 88.7291, "EPHEMERIS_TYPE": 0, "CLASSIFICATION_TYPE": "U", "NORAD_CAT_ID": 31416, "ELEMENT_SET_NO": 999, "REV_AT_EPOCH": 65428, "BSTAR": 0.0005374274, "MEAN_MOTION_DOT": 1.849e-05, "MEAN_MOTION_DDOT": 0}, "tle": {"line1": "1 31416U 99025BTC 25340.38521042  .00001849  00000+0  53743-3 0  9995", "line2": "2 31416  99.0524  30.2476 0132809 269.8677  88.7291 14.40651167654281"}}, "geometry": {"type": "Point", "coordinates": [13.928247453491434, 61.588999123310295]}}, {"type": "Feature", "properties": {"norad_id": 31420, "name": "FENGYUN 1C DEB", "group": "fengyun-1c-debris", "lat": -80.00375456134354, "lon": 10.871890262836155, "alt_km": 748.2556539060524, "timestamp": "2025-12-07T03:52:32.779567+00:00", "meta": {"OBJECT_NAME": "FENGYUN 1C DEB", "OBJECT_ID": "1999-025BTG", "EPOCH": "2025-12-02T05:00:22.989888", "MEAN_MOTION": 14.4072494, "ECCENTRICITY": 0.0136749, "INCLINATION": 97.5586, "RA_OF_ASC_NODE": 235.3697, "ARG_OF_PERICENTER": 0.5233, "MEAN_ANOMALY": 150.6733, "EPHEMERIS_TYPE": 0, "CLASSIFICATION_TYPE": "U", "NORAD_CAT_ID": 31420, "ELEMENT_SET_NO": 999, "REV_AT_EPOCH": 64842, "BSTAR": 0.00094796, "MEAN_MOTION_DOT": 3.346e-05, "MEAN_MOTION_DDOT": 0}, "tle": {"line1": "1 31420U 99025BTG 25336.20859942  .00003346  00000+0  94796-3 0  9996", "line2": "2 31420  97.5586 235.3697 0136749   0.5233 150.6733 14.40724940648424"}}, "geometry": {"type": "Point", "coordinates": [10.871890262836155, -80.00375456134354]}}, {"type": "Feature", "properties": {"norad_id": 31422, "name": "FENGYUN 1C DEB", "group": "fengyun-1c-debris", "lat": 75.0992952631004, "lon": -57.146000562376685, "alt_km": 866.1743469298999, "timestamp": "2025-12-07T03:52:32.779578+00:00", "meta": {"OBJECT_NAME": "FENGYUN 1C DEB", "OBJECT_ID": "1999-025BTJ", "EPOCH": "2025-12-03T18:33:54.370080", "MEAN_MOTION": 14.09602182, "ECCENTRICITY": 0.00341914, "INCLINATION": 98.7599, "RA_OF_ASC_NODE": 334.9702, "ARG_OF_PERICENTER": 326.656, "MEAN_ANOMALY": 208.1206, "EPHEMERIS_TYPE": 0, "CLASSIFICATION_TYPE": "U", "NORAD_CAT_ID": 31422, "ELEMENT_SET_NO": 999, "REV_AT_EPOCH": 95535, "BSTAR": 0.00049068577, "MEAN_MOTION_DOT": 8.21e-06, "MEAN_MOTION_DDOT": 0}, "tle": {"line1": "1 31422U 99025BTJ 25337.77354595  .00000821  00000+0  49069-3 0  9993", "line2": "2 31422  98.7599 334.9702 0034191 326.6560 208.1206 14.09602182955354"}}, "geometry": {"type": "Point", "coordinates": [-57.146000562376685, 75.0992952631004]}}, {"type": "Feature", "properties": {"norad_id": 31423, "name": "FENGYUN 1C DEB", "group": "fengyun-1c-debris", "lat": -71.91831905936299, "lon": -10.323783605803392, "alt_km": 816.1254320120652, "timestamp": "2025-12-07T03:52:32.779588+00:00", "meta": {"OBJECT_NAME": "FENGYUN 1C DEB", "OBJECT_ID": "1999-025BTK", "EPOCH": "2025-12-06T09:39:38.410560", "MEAN_MOTION": 14.22965103, "ECCENTRICITY": 0.00357223, "INCLINATION": 98.5829, "RA_OF_ASC_NODE": 321.3836, "ARG_OF_PERICENTER": 212.6386, "MEAN_ANOMALY": 147.2585, "EPHEMERIS_TYPE": 0, "CLASSIFICATION_TYPE": "U", "NORAD_CAT_ID": 31423, "ELEMENT_SET_NO": 999, "REV_AT_EPOCH": 96878, "BSTAR": 0.00027101833, "MEAN_MOTION_DOT": 5.71e-06, "MEAN_MOTION_DDOT": 0}, "tle": {"line1": "1 31423U 99025BTK 25340.40252790  .00000571  00000+0  27102-3 0  9998", "line2": "2 31423  98.5829 321.3836 0035722 212.6386 147.2585 14.22965103968782"}}, "geometry": {"type": "Point", "coordinates": [-10.323783605803392, -71.91831905936299]}}, {"type": "Feature", "properties": {"norad_id": 31424, "name": "FENGYUN 1C DEB", "group": "fengyun-1c-debris", "lat": -23.19726116281557, "lon": 29.154600450827278, "alt_km": 925.8014057365917, "timestamp": "2025-12-07T03:52:32.779598+00:00", "meta": {"OBJECT_NAME": "FENGYUN 1C DEB", "OBJECT_ID": "1999-025BTL", "EPOCH": "2025-12-06T14:20:51.689472", "MEAN_MOTION": 14.08352403, "ECCENTRICITY": 0.00944321, "INCLINATION": 98.4822, "RA_OF_ASC_NODE": 24.9579, "ARG_OF_PERICENTER": 122.6448, "MEAN_ANOMALY": 238.3878, "EPHEMERIS_TYPE": 0, "CLASSIFICATION_TYPE": "U", "NORAD_CAT_ID": 31424, "ELEMENT_SET_NO": 999, "REV_AT_EPOCH": 63084, "BSTAR": 0.00030072838, "MEAN_MOTION_DOT": 4.97e-06, "MEAN_MOTION_DDOT": 0}, "tle": {"line1": "1 31424U 99025BTL 25340.59782048  .00000497  00000+0  30073-3 0  9991", "line2": "2 31424  98.4822  24.9579 0094432 122.6448 238.3878 14.08352403630844"}}, "geometry": {"type": "Point", "coordinates": [29.154600450827278, -23.19726116281557]}}, {"type": "Feature", "properties": {"norad_id": 31426, "name": "FENGYUN 1C DEB", "group": "fengyun-1c-debris", "lat": 11.317478359805348, "lon": -39.07436088364248, "alt_km": 728.3866205875911, "timestamp": "2025-12-07T03:52:32.779608+00:00", "meta": {"OBJECT_NAME": "FENGYUN 1C DEB", "OBJECT_ID": "1999-025BTN", "EPOCH": "2025-12-05T22:26:14.174592", "MEAN_MOTION": 13.89952053, "ECCENTRICITY": 0.0325112, "INCLINATION": 98.5783, "RA_OF_ASC_NODE": 138.061, "ARG_OF_PERICENTER": 204.7387, "MEAN_ANOMALY": 311.3036, "EPHEMERIS_TYPE": 0, "CLASSIFICATION_TYPE": "U", "NORAD_CAT_ID": 31426, "ELEMENT_SET_NO": 999, "REV_AT_EPOCH": 93478, "BSTAR": 0.0044880069, "MEAN_MOTION_DOT": 8.436e-05, "MEAN_MOTION_DDOT": 0}, "tle": {"line1": "1 31426U 99025BTN 25339.93488628  .00008436  00000+0  44880-2 0  9997", "line2": "2 31426  98.5783 138.0610 0325112 204.7387 311.3036 13.89952053934785"}}, "geometry": {"type": "Point", "coordinates": [-39.07436088364248, 11.317478359805348]}}, {"type": "Feature", "properties": {"norad_id": 31427, "name": "FENGYUN 1C DEB", "group": "fengyun-1c-debris", "lat": 8.798620491690386, "lon": -88.66888183985081, "alt_km": 715.293962440971, "timestamp": "2025-12-07T03:52:32.779618+00:00", "meta": {"OBJECT_NAME": "FENGYUN 1C DEB", "OBJECT_ID": "1999-025BTP", "EPOCH": "2025-12-05T06:38:24.478944", "MEAN_MOTION": 14.58416313, "ECCENTRICITY": 0.00318184, "INCLINATION": 98.6701, "RA_OF_ASC_NODE": 88.0127, "ARG_OF_PERICENTER": 43.0691, "MEAN_ANOMALY": 317.2988, "EPHEMERIS_TYPE": 0, "CLASSIFICATION_TYPE": "U", "NORAD_CAT_ID": 31427, "ELEMENT_SET_NO": 999, "REV_AT_EPOCH": 96772, "BSTAR": 0.0046305931, "MEAN_MOTION_DOT": 0.00021631, "MEAN_MOTION_DDOT": 0}, "tle": {"line1": "1 31427U 99025BTP 25339.27667221  .00021631  00000+0  46306-2 0  9990", "line2": "2 31427  98.6701  88.0127 0031818  43.0691 317.2988 14.58416313967725"}}, "geometry": {"type": "Point", "coordinates": [-88.66888183985081, 8.798620491690386]}}, {"type": "Feature", "properties": {"norad_id": 31428, "name": "FENGYUN 1C DEB", "group": "fengyun-1c-debris", "lat": -59.92217858170055, "lon": 116.33482359512189, "alt_km": 743.9750660233876, "timestamp": "2025-12-07T03:52:32.779629+00:00", "meta": {"OBJECT_NAME": "FENGYUN 1C DEB", "OBJECT_ID": "1999-025BTQ", "EPOCH": "2025-12-05T16:37:31.736352", "MEAN_MOTION": 14.41959696, "ECCENTRICITY": 0.00634533, "INCLINATION": 99.0375, "RA_OF_ASC_NODE": 310.7314, "ARG_OF_PERICENTER": 174.6333, "MEAN_ANOMALY": 5.6896, "EPHEMERIS_TYPE": 0, "CLASSIFICATION_TYPE": "U", "NORAD_CAT_ID": 31428, "ELEMENT_SET_NO": 999, "REV_AT_EPOCH": 97408, "BSTAR": 0.0014692419, "MEAN_MOTION_DOT": 4.886e-05, "MEAN_MOTION_DDOT": 0}, "tle": {"line1": "1 31428U 99025BTQ 25339.69272843  .00004886  00000+0  14692-2 0  9995", "line2": "2 31428  99.0375 310.7314 0063453 174.6333   5.6896 14.41959696974086"}}, "geometry": {"type": "Point", "coordinates": [116.33482359512189, -59.92217858170055]}}, {"type": "Feature", "properties": {"norad_id": 31429, "name": "FENGYUN 1C DEB", "group": "fengyun-1c-debris", "lat": -39.369073329258974, "lon": 37.38609309038107, "alt_km": 828.4452737423644, "timestamp": "2025-12-07T03:52:32.779639+00:00", "meta": {"OBJECT_NAME": "FENGYUN 1C DEB", "OBJECT_ID": "1999-025BTR", "EPOCH": "2025-12-03T02:17:33.244224", "MEAN_MOTION": 14.22501224, "ECCENTRICITY": 0.0015036, "INCLINATION": 98.6915, "RA_OF_ASC_NODE": 26.1666, "ARG_OF_PERICENTER": 90.6109, "MEAN_ANOMALY": 299.4857, "EPHEMERIS_TYPE": 0, "CLASSIFICATION_TYPE": "U", "NORAD_CAT_ID": 31429, "ELEMENT_SET_NO": 999, "REV_AT_EPOCH": 95816, "BSTAR": 0.0012419305, "MEAN_MOTION_DOT": 2.731e-05, "MEAN_MOTION_DDOT": 0}, "tle": {"line1": "1 31429U 99025BTR 25337.09552366  .00002731  00000+0  12419-2 0  9991", "line2": "2 31429  98.6915  26.1666 0015036  90.6109 299.4857 14.22501224958162"}}, "geometry": {"type": "Point", "coordinates": [37.38609309038107, -39.369073329258974]}}, {"type": "Feature", "properties": {"norad_id": 31430, "name": "FENGYUN 1C DEB", "group": "fengyun-1c-debris", "lat": 17.478958633975335, "lon": -133.01781593346527, "alt_km": 811.5719656363708, "timestamp": "2025-12-07T03:52:32.779649+00:00", "meta": {"OBJECT_NAME": "FENGYUN 1C DEB", "OBJECT_ID": "1999-025BTS", "EPOCH": "2025-12-06T10:22:16.151232", "MEAN_MOTION": 14.25563753, "ECCENTRICITY": 0.0027109, "INCLINATION": 98.7454, "RA_OF_ASC_NODE": 43.4766, "ARG_OF_PERICENTER": 60.5116, "MEAN_ANOMALY": 320.4027, "EPHEMERIS_TYPE": 0, "CLASSIFICATION_TYPE": "U", "NORAD_CAT_ID": 31430, "ELEMENT_SET_NO": 999, "REV_AT_EPOCH": 96028, "BSTAR": 0.0019509456, "MEAN_MOTION_DOT": 4.592e-05, "MEAN_MOTION_DDOT": 0}, "tle": {"line1": "1 31430U 99025BTS 25340.43213138  .00004592  00000+0  19509-2 0  9990", "line2": "2 31430  98.7454  43.4766 0027109  60.5116 320.4027 14.25563753960282"}}, "geometry": {"type": "Point", "coordinates": [-133.01781593346527, 17.478958633975335]}}]}